[{"OBJECT_NAME":"JY1SAT (JO-97)","OBJECT_ID":"2018-099AX","EPOCH":"2026-03-09T16:28:19.890048","MEAN_MOTION":15.30302629,"ECCENTRICITY":0.00047232,"INCLINATION":97.4249,"RA_OF_ASC_NODE":131.3625,"ARG_OF_PERICENTER":256.6795,"MEAN_ANOMALY":103.3919,"EPHEMERIS_TYPE":0,"CLASSIFICATION_TYPE":"U","NORAD_CAT_ID":43803,"ELEMENT_SET_NO":999,"REV_AT_EPOCH":39839,"BSTAR":0.00060804308,"MEAN_MOTION_DOT":0.00017774,"MEAN_MOTION_DDOT":0},{"OBJECT_NAME":"STARLINK-35926","OBJECT_ID":"2025-271AB","EPOCH":"2026-03-09T10:17:59.123328","MEAN_MOTION":15.30180363,"ECCENTRICITY":0.00011082,"INCLINATION":53.1576,"RA_OF_ASC_NODE":141.3613,"ARG_OF_PERICENTER":91.4584,"MEAN_ANOMALY":268.6543,"EPHEMERIS_TYPE":0,"CLASSIFICATION_TYPE":"U","NORAD_CAT_ID":66642,"ELEMENT_SET_NO":999,"REV_AT_EPOCH":1748,"BSTAR":0.00040891163,"MEAN_MOTION_DOT":0.00011764,"MEAN_MOTION_DDOT":0}]
