JY1SAT (JO-97)          
1 43803U 18099AX  26068.68634132  .00017774  00000+0  60804-3 0  9996
2 43803  97.4249 131.3625 0004723 256.6795 103.3919 15.30302628398390
STARLINK-35926          
1 66642U 25271AB  26068.42915652  .00011764  00000+0  40891-3 0  9990
2 66642  53.1576 141.3613 0001108  91.4584 268.6543 15.30180363 17487
